{
  "type": "FeatureCollection",
  "features": [
    {
      "type": "Feature",
      "properties": {
        "norad_id": 33412,
        "name": "COSMO-SKYMED 3",
        "group": "resource",
        "lat": -74.61952305203693,
        "lon": 1.3551592232575937,
        "alt_km": 564.979064410345,
        "timestamp": "2025-12-26T19:22:38.550758+00:00",
        "meta_object_name": "COSMO-SKYMED 3",
        "meta_object_id": "2008-054A",
        "meta_epoch": "2025-12-26T15:03:05.270112",
        "meta_mean_motion": 15.05471932,
        "meta_eccentricity": 0.00171277,
        "meta_inclination": 97.8451,
        "meta_ra_of_asc_node": 211.2538,
        "meta_arg_of_pericenter": 127.4144,
        "meta_mean_anomaly": 232.8644,
        "meta_ephemeris_type": 0,
        "meta_classification_type": "U",
        "meta_norad_cat_id": 33412,
        "meta_element_set_no": 999,
        "meta_rev_at_epoch": 93096,
        "meta_bstar": 0.00019381472,
        "meta_mean_motion_dot": 2.728e-05,
        "meta_mean_motion_ddot": 0,
        "tle_line1": "1 33412U 08054A   25360.62714433  .00002728  00000+0  19381-3 0  9999",
        "tle_line2": "2 33412  97.8451 211.2538 0017127 127.4144 232.8644 15.05471932930965"
      },
      "geometry": {
        "type": "Point",
        "coordinates": [
          1.3551592232575937,
          -74.61952305203693
        ]
      }
    },
    {
      "type": "Feature",
      "properties": {
        "norad_id": 33446,
        "name": "YAOGAN-4",
        "group": "resource",
        "lat": 10.702285397815471,
        "lon": 112.27744170158323,
        "alt_km": 624.5153632510255,
        "timestamp": "2025-12-26T19:22:38.550769+00:00",
        "meta_object_name": "YAOGAN-4",
        "meta_object_id": "2008-061A",
        "meta_epoch": "2025-12-26T05:39:31.954464",
        "meta_mean_motion": 14.82721305,
        "meta_eccentricity": 0.00129545,
        "meta_inclination": 97.9198,
        "meta_ra_of_asc_node": 290.2038,
        "meta_arg_of_pericenter": 275.3518,
        "meta_mean_anomaly": 84.6217,
        "meta_ephemeris_type": 0,
        "meta_classification_type": "U",
        "meta_norad_cat_id": 33446,
        "meta_element_set_no": 999,
        "meta_rev_at_epoch": 92003,
        "meta_bstar": 0.00018765921,
        "meta_mean_motion_dot": 1.463e-05,
        "meta_mean_motion_ddot": 0,
        "tle_line1": "1 33446U 08061A   25360.23578651  .00001463  00000+0  18766-3 0  9992",
        "tle_line2": "2 33446  97.9198 290.2038 0012954 275.3518  84.6217 14.82721305920036"
      },
      "geometry": {
        "type": "Point",
        "coordinates": [
          112.27744170158323,
          10.702285397815471
        ]
      }
    },
    {
      "type": "Feature",
      "properties": {
        "norad_id": 33492,
        "name": "GOSAT (IBUKI)",
        "group": "resource",
        "lat": 4.988275131877534,
        "lon": -70.07454493920066,
        "alt_km": 670.9785972214386,
        "timestamp": "2025-12-26T19:22:38.550793+00:00",
        "meta_object_name": "GOSAT (IBUKI)",
        "meta_object_id": "2009-002A",
        "meta_epoch": "2025-12-26T07:07:43.621824",
        "meta_mean_motion": 14.67550857,
        "meta_eccentricity": 0.00010366,
        "meta_inclination": 98.0771,
        "meta_ra_of_asc_node": 108.7121,
        "meta_arg_of_pericenter": 105.7066,
        "meta_mean_anomaly": 254.4253,
        "meta_ephemeris_type": 0,
        "meta_classification_type": "U",
        "meta_norad_cat_id": 33492,
        "meta_element_set_no": 999,
        "meta_rev_at_epoch": 90610,
        "meta_bstar": 0.00017141999,
        "meta_mean_motion_dot": 9.24e-06,
        "meta_mean_motion_ddot": 0,
        "tle_line1": "1 33492U 09002A   25360.29703266  .00000924  00000+0  17142-3 0  9995",
        "tle_line2": "2 33492  98.0771 108.7121 0001036 105.7066 254.4253 14.67550857906109"
      },
      "geometry": {
        "type": "Point",
        "coordinates": [
          -70.07454493920066,
          4.988275131877534
        ]
      }
    },
    {
      "type": "Feature",
      "properties": {
        "norad_id": 35681,
        "name": "DEIMOS-1",
        "group": "resource",
        "lat": -81.8537608455203,
        "lon": -90.52975828783194,
        "alt_km": 654.0587160499172,
        "timestamp": "2025-12-26T19:22:38.550812+00:00",
        "meta_object_name": "DEIMOS-1",
        "meta_object_id": "2009-041A",
        "meta_epoch": "2025-12-26T14:54:44.637408",
        "meta_mean_motion": 14.74974416,
        "meta_eccentricity": 0.00023944,
        "meta_inclination": 97.7158,
        "meta_ra_of_asc_node": 160.5791,
        "meta_arg_of_pericenter": 58.6265,
        "meta_mean_anomaly": 301.5179,
        "meta_ephemeris_type": 0,
        "meta_classification_type": "U",
        "meta_norad_cat_id": 35681,
        "meta_element_set_no": 999,
        "meta_rev_at_epoch": 88144,
        "meta_bstar": 0.00016841974,
        "meta_mean_motion_dot": 1.085e-05,
        "meta_mean_motion_ddot": 0,
        "tle_line1": "1 35681U 09041A   25360.62134997  .00001085  00000+0  16842-3 0  9991",
        "tle_line2": "2 35681  97.7158 160.5791 0002394  58.6265 301.5179 14.74974416881449"
      },
      "geometry": {
        "type": "Point",
        "coordinates": [
          -90.52975828783194,
          -81.8537608455203
        ]
      }
    },
    {
      "type": "Feature",
      "properties": {
        "norad_id": 35682,
        "name": "DUBAISAT-1",
        "group": "resource",
        "lat": -5.345016993252763,
        "lon": -49.47117800175181,
        "alt_km": 648.671363693099,
        "timestamp": "2025-12-26T19:22:38.550824+00:00",
        "meta_object_name": "DUBAISAT-1",
        "meta_object_id": "2009-041B",
        "meta_epoch": "2025-12-26T15:16:54.705792",
        "meta_mean_motion": 14.74642191,
        "meta_eccentricity": 0.0009257,
        "meta_inclination": 97.9799,
        "meta_ra_of_asc_node": 131.1127,
        "meta_arg_of_pericenter": 264.3825,
        "meta_mean_anomaly": 95.6328,
        "meta_ephemeris_type": 0,
        "meta_classification_type": "U",
        "meta_norad_cat_id": 35682,
        "meta_element_set_no": 999,
        "meta_rev_at_epoch": 87966,
        "meta_bstar": 0.00022737118,
        "meta_mean_motion_dot": 1.467e-05,
        "meta_mean_motion_ddot": 0,
        "tle_line1": "1 35682U 09041B   25360.63674428  .00001467  00000+0  22737-3 0  9995",
        "tle_line2": "2 35682  97.9799 131.1127 0009257 264.3825  95.6328 14.74642191879663"
      },
      "geometry": {
        "type": "Point",
        "coordinates": [
          -49.47117800175181,
          -5.345016993252763
        ]
      }
    },
    {
      "type": "Feature",
      "properties": {
        "norad_id": 35931,
        "name": "OCEANSAT-2",
        "group": "resource",
        "lat": 9.631446137477672,
        "lon": -178.6136820282072,
        "alt_km": 907.6519771626445,
        "timestamp": "2025-12-26T19:22:38.550835+00:00",
        "meta_object_name": "OCEANSAT-2",
        "meta_object_id": "2009-051A",
        "meta_epoch": "2025-12-26T15:08:09.506112",
        "meta_mean_motion": 13.99623047,
        "meta_eccentricity": 0.00158681,
        "meta_inclination": 98.2218,
        "meta_ra_of_asc_node": 359.8216,
        "meta_arg_of_pericenter": 8.5035,
        "meta_mean_anomaly": 351.6398,
        "meta_ephemeris_type": 0,
        "meta_classification_type": "U",
        "meta_norad_cat_id": 35931,
        "meta_element_set_no": 999,
        "meta_rev_at_epoch": 85519,
        "meta_bstar": 4.2170441e-05,
        "meta_mean_motion_dot": 2.4e-07,
        "meta_mean_motion_ddot": 0,
        "tle_line1": "1 35931U 09051A   25360.63066558  .00000024  00000+0  42170-4 0  9994",
        "tle_line2": "2 35931  98.2218 359.8216 0015868   8.5035 351.6398 13.99623047855193"
      },
      "geometry": {
        "type": "Point",
        "coordinates": [
          -178.6136820282072,
          9.631446137477672
        ]
      }
    },
    {
      "type": "Feature",
      "properties": {
        "norad_id": 35946,
        "name": "WORLDVIEW-2 (WV-2)",
        "group": "resource",
        "lat": 57.74683834579919,
        "lon": 58.027908719622154,
        "alt_km": 757.3792390491908,
        "timestamp": "2025-12-26T19:22:38.550846+00:00",
        "meta_object_name": "WORLDVIEW-2 (WV-2)",
        "meta_object_id": "2009-055A",
        "meta_epoch": "2025-12-26T14:05:40.112448",
        "meta_mean_motion": 14.37730173,
        "meta_eccentricity": 0.0004639,
        "meta_inclination": 98.4771,
        "meta_ra_of_asc_node": 71.4816,
        "meta_arg_of_pericenter": 36.2574,
        "meta_mean_anomaly": 323.8927,
        "meta_ephemeris_type": 0,
        "meta_classification_type": "U",
        "meta_norad_cat_id": 35946,
        "meta_element_set_no": 999,
        "meta_rev_at_epoch": 85084,
        "meta_bstar": 7.7865456e-05,
        "meta_mean_motion_dot": 1.91e-06,
        "meta_mean_motion_ddot": 0,
        "tle_line1": "1 35946U 09055A   25360.58726982  .00000191  00000+0  77865-4 0  9996",
        "tle_line2": "2 35946  98.4771  71.4816 0004639  36.2574 323.8927 14.37730173850846"
      },
      "geometry": {
        "type": "Point",
        "coordinates": [
          58.027908719622154,
          57.74683834579919
        ]
      }
    }
  ]
}